NORAD_CAT_ID,OBJECT_NAME,OBJECT_TYPE,EPOCH,MEAN_MOTION,ECCENTRICITY,INCLINATION,RA_OF_ASC_NODE,ARG_OF_PERICENTER,MEAN_ANOMALY,BSTAR,MEAN_MOTION_DOT,MEAN_MOTION_DDOT,TLE_LINE0,TLE_LINE1,TLE_LINE2,SEMIMAJOR_AXIS,PERIOD,APOGEE,PERIGEE,DECAYED
51725.0,STARLINK-3522,PAYLOAD,2023-05-06 04:56:04,15.08839093,0.000104,53.2151,311.0568,75.9786,284.1322,2.3695e-05,8.9e-07,0.0,0 STARLINK-3522,1 51725U 22016M   23126.20560351  .00000089  00000-0  23695-4 0  9993,2 51725  53.2151 311.0568 0001040  75.9786 284.1322 15.08839093 67775,6917.883,95.438,540.468,539.029,0.0
51725.0,STARLINK-3522,PAYLOAD,2023-05-06 14:28:23,15.08837663,0.0001116,53.2162,309.2717,75.4617,284.6499,-9.4918e-05,-1.798e-05,0.0,0 STARLINK-3522,1 51725U 22016M   23126.60304467 -.00001798  00000-0 -94918-4 0  9997,2 51725  53.2162 309.2717 0001116  75.4617 284.6499 15.08837663 66707,6917.888,95.438,540.525,538.98,0.0
51725.0,STARLINK-3522,PAYLOAD,2023-05-07 04:46:51,15.08845257,8.46e-05,53.2158,306.5983,94.8399,265.269,-2.8561e-05,-7.42e-06,0.0,0 STARLINK-3522,1 51725U 22016M   23127.19920312 -.00000742  00000-0 -28561-4 0  9994,2 51725  53.2158 306.5983 0000846  94.8399 265.2690 15.08845257 66793,6917.864,95.437,540.315,539.144,0.0
51725.0,STARLINK-3522,PAYLOAD,2023-05-07 19:05:19,15.08834572,9.68e-05,53.2155,303.9209,98.0471,262.0631,1.4526e-05,-5.7e-07,0.0,0 STARLINK-3522,1 51725U 22016M   23127.79536910 -.00000057  00000-0  14526-4 0  9991,2 51725  53.2155 303.9209 0000968  98.0471 262.0631 15.08834572 68019,6917.897,95.438,540.432,539.092,0.0
51725.0,STARLINK-3522,PAYLOAD,2023-05-08 06:13:01,15.08843246,9.46e-05,53.2154,301.8392,97.8776,262.2324,4.0242e-05,3.53e-06,0.0,0 STARLINK-3522,1 51725U 22016M   23128.25904555  .00000353  00000-0  40242-4 0  9999,2 51725  53.2154 301.8392 0000946  97.8776 262.2324 15.08843246 68085,6917.87,95.437,540.39,539.081,0.0
51725.0,STARLINK-3522,PAYLOAD,2023-05-08 18:56:06,15.08851961,9.35e-05,53.2153,299.4603,101.7525,258.3572,0.00027584,4.106e-05,0.0,0 STARLINK-3522,1 51725U 22016M   23128.78896232  .00004106  00000-0  27584-3 0  9992,2 51725  53.2153 299.4603 0000935 101.7525 258.3572 15.08851961 67034,6917.844,95.437,540.356,539.062,0.0
51725.0,STARLINK-3522,PAYLOAD,2023-05-09 06:03:48,15.08842945,0.0001233,53.216,297.3799,82.1813,277.9319,0.00019754,2.858e-05,0.0,0 STARLINK-3522,1 51725U 22016M   23129.25264788  .00002858  00000-0  19754-3 0  9992,2 51725  53.2160 297.3799 0001233  82.1813 277.9319 15.08842945 67105,6917.871,95.437,540.589,538.883,0.0
51725.0,STARLINK-3522,PAYLOAD,2023-05-10 04:19:12,15.08844886,9.09e-05,53.2157,293.2147,80.6925,279.417,0.00015129,2.121e-05,0.0,0 STARLINK-3522,1 51725U 22016M   23130.18000771  .00002121  00000-0  15129-3 0  9991,2 51725  53.2157 293.2147 0000909  80.6925 279.4170 15.08844886 67242,6917.865,95.437,540.359,539.102,0.0
51725.0,STARLINK-3522,PAYLOAD,2023-05-10 18:37:40,15.08849724,9.44e-05,53.2162,290.5363,95.511,264.599,0.0002322,3.411e-05,0.0,0 STARLINK-3522,1 51725U 22016M   23130.77616517  .00003411  00000-0  23220-3 0  9991,2 51725  53.2162 290.5363 0000944  95.5110 264.5990 15.08849724 67339,6917.851,95.437,540.369,539.063,0.0
51725.0,STARLINK-3522,PAYLOAD,2023-05-11 04:09:59,15.08846022,8.65e-05,53.2153,288.7525,94.6291,265.48,0.000213,3.104e-05,0.0,0 STARLINK-3522,1 51725U 22016M   23131.17360632  .00003104  00000-0  21300-3 0  9996,2 51725  53.2153 288.7525 0000865  94.6291 265.4800 15.08846022 67394,6917.862,95.437,540.325,539.129,0.0
51725.0,STARLINK-3522,PAYLOAD,2023-05-11 16:53:05,15.08838406,9.97e-05,53.2166,286.3726,97.2164,262.8941,0.00015746,2.219e-05,0.0,0 STARLINK-3522,1 51725U 22016M   23131.70353137  .00002219  00000-0  15746-3 0  9990,2 51725  53.2166 286.3726 0000997  97.2164 262.8941 15.08838406 68608,6917.885,95.438,540.44,539.061,0.0
51725.0,STARLINK-3522,PAYLOAD,2023-05-12 16:43:52,15.08842282,0.0001058,53.2167,281.9135,90.4007,269.7107,3.7278e-05,3.06e-06,0.0,0 STARLINK-3522,1 51725U 22016M   23132.69713087  .00000306  00000-0  37278-4 0  9993,2 51725  53.2167 281.9135 0001058  90.4007 269.7107 15.08842282 67622,6917.873,95.437,540.47,539.007,0.0
51725.0,STARLINK-3522,PAYLOAD,2023-05-13 13:23:53,15.08836766,9.88e-05,53.216,278.0467,90.771,269.3395,0.00021517,3.138e-05,0.0,0 STARLINK-3522,1 51725U 22016M   23133.55825410  .00003138  00000-0  21517-3 0  9997,2 51725  53.2160 278.0467 0000988  90.7710 269.3395 15.08836766 67754,6917.89,95.438,540.439,539.072,0.0
51725.0,STARLINK-3522,PAYLOAD,2023-05-13 14:59:16,15.0884153,0.0001086,53.2162,277.7517,88.2148,271.8969,0.00013856,1.918e-05,0.0,0 STARLINK-3522,1 51725U 22016M   23133.62449169  .00001918  00000-0  13856-3 0  9999,2 51725  53.2162 277.7517 0001086  88.2148 271.8969 15.08841530 68891,6917.876,95.437,540.492,538.989,0.0
51725.0,STARLINK-3522,PAYLOAD,2023-05-14 13:14:40,15.08838014,0.0001618,53.2175,273.5982,123.5043,236.6104,2.0008e-05,3e-07,0.0,0 STARLINK-3522,1 51725U 22016M   23134.55185331  .00000030  00000-0  20008-4 0  9992,2 51725  53.2175 273.5982 0001618 123.5043 236.6104 15.08838014 67907,6917.886,95.438,540.871,538.632,0.0
51725.0,STARLINK-3522,PAYLOAD,2023-05-14 18:00:50,15.08805197,0.0001268,53.2155,272.6975,103.8305,256.2828,-0.00052676,-8.653e-05,0.0,0 STARLINK-3522,1 51725U 22016M   23134.75058869 -.00008653  00000-0 -52676-3 0  9995,2 51725  53.2155 272.6975 0001268 103.8305 256.2828 15.08805197 67930,6917.987,95.44,540.729,538.975,0.0
51725.0,STARLINK-3522,PAYLOAD,2023-05-15 01:57:45,15.08833953,0.0001213,53.2154,271.209,87.1889,272.9242,-3.4005e-05,-8.29e-06,0.0,0 STARLINK-3522,1 51725U 22016M   23135.08177634 -.00000829  00000-0 -34005-4 0  9998,2 51725  53.2154 271.2090 0001213  87.1889 272.9242 15.08833953 69111,6917.899,95.438,540.603,538.925,0.0
51725.0,STARLINK-3522,PAYLOAD,2023-05-15 13:05:27,15.08838472,9.99e-05,53.2151,269.1267,89.5915,270.5192,-0.00011112,-2.056e-05,0.0,0 STARLINK-3522,1 51725U 22016M   23135.54545455 -.00002056  00000-0 -11112-3 0  9996,2 51725  53.2151 269.1267 0000999  89.5915 270.5192 15.08838472 68057,6917.885,95.438,540.441,539.059,0.0
51725.0,STARLINK-3522,PAYLOAD,2023-05-15 14:40:50,15.08845355,0.0001007,53.2154,268.8315,108.5405,251.5696,-1.683e-06,-3.15e-06,0.0,0 STARLINK-3522,1 51725U 22016M   23135.61169095 -.00000315  00000-0 -16830-5 0  9996,2 51725  53.2154 268.8315 0001007 108.5405 251.5696 15.08845355 69199,6917.864,95.437,540.426,539.032,0.0
51725.0,STARLINK-3522,PAYLOAD,2023-05-15 16:16:13,15.0884115,0.0001134,53.2159,268.5322,91.673,268.4392,-4.8285e-05,-1.056e-05,0.0,0 STARLINK-3522,1 51725U 22016M   23135.67793375 -.00001056  00000-0 -48285-4 0  9997,2 51725  53.2159 268.5322 0001134  91.6730 268.4392 15.08841150 68078,6917.877,95.437,540.526,538.957,0.0
51725.0,STARLINK-3522,PAYLOAD,2023-05-16 12:56:14,15.08833926,0.0001159,53.2164,264.6691,96.8426,263.2698,0.00012444,1.693e-05,0.0,0 STARLINK-3522,1 51725U 22016M   23136.53906170  .00001693  00000-0  12444-3 0  9994,2 51725  53.2164 264.6691 0001159  96.8426 263.2698 15.08833926 69330,6917.899,95.438,540.566,538.962,0.0
51725.0,STARLINK-3522,PAYLOAD,2023-05-17 01:39:19,15.08843219,0.0001133,53.2162,262.2893,96.7916,263.3205,8.3301e-05,1.038e-05,0.0,0 STARLINK-3522,1 51725U 22016M   23137.06897660  .00001038  00000-0  83301-4 0  9990,2 51725  53.2162 262.2893 0001133  96.7916 263.3205 15.08843219 69411,6917.871,95.437,540.519,538.952,0.0
51725.0,STARLINK-3522,PAYLOAD,2023-05-17 14:22:24,15.08842648,0.0001221,53.2171,259.9112,88.8414,271.2718,0.00010357,1.361e-05,0.0,0 STARLINK-3522,1 51725U 22016M   23137.59889794  .00001361  00000-0  10357-3 0  9996,2 51725  53.2171 259.9112 0001221  88.8414 271.2718 15.08842648 68366,6917.872,95.437,540.582,538.893,0.0
51725.0,STARLINK-3522,PAYLOAD,2023-05-18 01:30:06,15.08838739,0.0001045,53.2155,257.8283,93.0454,267.0658,8.2706e-05,1.029e-05,0.0,0 STARLINK-3522,1 51725U 22016M   23138.06257999  .00001029  00000-0  82706-4 0  9994,2 51725  53.2155 257.8283 0001045  93.0454 267.0658 15.08838739 69565,6917.884,95.438,540.472,539.026,0.0
51725.0,STARLINK-3522,PAYLOAD,2023-05-18 12:37:49,15.08831175,0.0001005,53.2155,255.7466,95.5548,264.5559,0.00014336,1.994e-05,0.0,0 STARLINK-3522,1 51725U 22016M   23138.52626328  .00001994  00000-0  14336-3 0  9995,2 51725  53.2155 255.7466 0001005  95.5548 264.5559 15.08831175 68504,6917.907,95.438,540.468,539.077,0.0
51725.0,STARLINK-3522,PAYLOAD,2023-05-19 17:14:44,15.08847905,0.0001038,53.2156,250.3935,93.1524,266.9587,9.6921e-05,1.255e-05,0.0,0 STARLINK-3522,1 51725U 22016M   23139.71857285  .00001255  00000-0  96921-4 0  9996,2 51725  53.2156 250.3935 0001038  93.1524 266.9587 15.08847905 69811,6917.856,95.437,540.439,539.003,0.0
51725.0,STARLINK-3522,PAYLOAD,2023-05-20 13:54:44,15.08863173,0.0001123,53.2165,246.5257,95.9734,264.1386,0.00013945,1.934e-05,0.0,0 STARLINK-3522,1 51725U 22016M   23140.57968232  .00001934  00000-0  13945-3 0  9995,2 51725  53.2165 246.5257 0001123  95.9734 264.1386 15.08863173 69949,6917.81,95.436,540.451,538.898,0.0
51725.0,STARLINK-3522,PAYLOAD,2023-05-20 23:27:04,15.08849906,0.0001122,53.2161,244.7421,86.7081,273.4039,0.00015118,2.12e-05,0.0,0 STARLINK-3522,1 51725U 22016M   23140.97712982  .00002120  00000-0  15118-3 0  9990,2 51725  53.2161 244.7421 0001122  86.7081 273.4039 15.08849906 70005,6917.85,95.437,540.491,538.939,0.0
51725.0,STARLINK-3522,PAYLOAD,2023-05-21 12:10:09,15.08840957,0.0001302,53.2157,242.3678,109.0586,251.0547,-5.2512e-06,-3.71e-06,0.0,0 STARLINK-3522,1 51725U 22016M   23141.50705267 -.00000371  00000-0 -52512-5 0  9997,2 51725  53.2157 242.3678 0001302 109.0586 251.0547 15.08840957 68951,6917.877,95.437,540.643,538.842,0.0
51725.0,STARLINK-3522,PAYLOAD,2023-05-22 08:50:11,15.08834762,0.0001082,53.2162,238.4998,100.9514,259.16,-0.00010715,-1.992e-05,0.0,0 STARLINK-3522,1 51725U 22016M   23142.36818480 -.00001992  00000-0 -10715-3 0  9991,2 51725  53.2162 238.4998 0001082 100.9514 259.1600 15.08834762 70212,6917.896,95.438,540.51,539.013,0.0
